ONEWEB-0709             
1 55172U 23004AJ  25179.79769790 -.00000208  00000+0 -62158-3 0  9993
2 55172  87.8840  91.5357 0002833  72.0494 288.0943 13.11418037119553
ONEWEB-0710             
1 55173U 23004AK  25180.25244120  .00000086  00000+0  18752-3 0  9995
2 55173  87.9058  76.1463 0001798  73.4622 286.6707 13.17647935121103
ONEWEB-0711             
1 55174U 23004AL  25180.30294732 -.00000086  00000+0 -27769-3 0  9996
2 55174  87.8835  91.4029 0001463  54.7390 305.3875 13.11415630119591
ONEWEB-0713             
1 55175U 23004AM  25179.71122225 -.00000440  00000+0 -12766-2 0  9991
2 55175  87.8837  91.5284 0001717  69.9761 290.1551 13.11417177119499
ONEWEB-0715             
1 55176U 23004AN  25179.78243407 -.00000532  00000+0 -15365-2 0  9995
2 55176  87.8838  91.5147 0002210  70.5527 289.5839 13.11417041119543
ONEWEB-0716             
1 55177U 23004AP  25180.47351265  .00000123  00000+0  28470-3 0  9992
2 55177  87.9060  76.1021 0001913  84.8667 275.2683 13.17649009121138
ONEWEB-0717             
1 55178U 23004AQ  25180.22881947 -.00000034  00000+0 -12078-3 0  9991
2 55178  87.9058  76.1092 0001612  54.1249 306.0032 13.17651197121150
ONEWEB-0719             
1 55179U 23004AR  25180.46675564  .00000079  00000+0  16936-3 0  9998
2 55179  87.9057  76.0460 0001743  83.9253 276.2077 13.17652342121136
ONEWEB-0530             
1 55796U 23029A   25180.51834250 -.00000032  00000+0 -10990-3 0  9990
2 55796  87.9269 344.7274 0001330  91.0942 269.0344 13.20770453115308
ONEWEB-0534             
1 55797U 23029B   25180.20268456 -.00000085  00000+0 -24053-3 0  9999
2 55797  87.9270 344.7975 0001863  97.5147 262.6198 13.20772986115240
ONEWEB-0556             
1 55798U 23029C   25179.90598838 -.00000088  00000+0 -24951-3 0  9995
2 55798  87.9268 344.8487 0001496 119.7271 240.4011 13.20771222114513
ONEWEB-0562             
1 55799U 23029D   25179.96909457 -.00000042  00000+0 -13467-3 0  9995
2 55799  87.9269 344.8289 0000896 104.7422 255.3811 13.20773539115203
ONEWEB-0563             
1 55800U 23029E   25179.88703742  .00000017  00000+0  88905-5 0  9999
2 55800  87.9269 344.8598 0002046 100.9165 259.2198 13.20772470114506
ONEWEB-0564             
1 55801U 23029F   25180.48677053 -.00000110  00000+0 -30361-3 0  9990
2 55801  87.9265 344.7298 0001456  93.3921 266.7379 13.20770974115308
ONEWEB-0638             
1 55802U 23029G   25180.20655190 -.00000107  00000+0 -32277-3 0  9993
2 55802  87.9037 359.9938 0001495 105.8574 254.2720 13.14502761113738
ONEWEB-0639             
1 55803U 23029H   25180.55963149  .00000040  00000+0  66370-4 0  9994
2 55803  87.9215  15.0844 0002893 100.8037 259.3421 13.19724859113086
ONEWEB-0640             
1 55804U 23029J   25179.91158683 -.00000243  00000+0 -68873-3 0  9998
2 55804  87.9036   0.0398 0001860 115.0307 245.1016 13.14502127113009
ONEWEB-0641             
1 55805U 23029K   25180.55490684  .00000047  00000+0  85225-4 0  9992
2 55805  87.9212  15.0571 0002061  91.2791 268.8577 13.19725488113096
ONEWEB-0642             
1 55806U 23029L   25180.09525366  .00000060  00000+0  11838-3 0  9991
2 55806  87.9212  15.1860 0002735  93.7461 266.3985 13.19724016113023
ONEWEB-0643             
1 55807U 23029M   25180.56652757  .00000242  00000+0  61760-3 0  9990
2 55807  87.9037 359.8923 0002566  86.5133 273.6290 13.14501855113776
ONEWEB-0644             
1 55808U 23029N   25180.54542156  .00000054  00000+0  10189-3 0  9990
2 55808  87.9219  15.1007 0002354  91.6119 268.5283 13.19724690113088
ONEWEB-0645             
1 55809U 23029P   25179.93494049 -.00000009  00000+0 -54103-4 0  9996
2 55809  87.9216  15.2180 0001978  98.7642 261.3715 13.19725902112312
ONEWEB-0646             
1 55810U 23029Q   25180.57147998  .00000058  00000+0  11206-3 0  9996
2 55810  87.9215  15.0842 0002106  87.7507 272.3867 13.19726508113075
ONEWEB-0648             
1 55811U 23029R   25180.00199115  .00001684  00000+0  45074-2 0  9998
2 55811  87.9037 359.9797 0002672 107.6376 252.5046 13.14495288113703
ONEWEB-0649             
1 55812U 23029S   25180.53436180  .00000038  00000+0  61484-4 0  9990
2 55812  87.9213  15.0811 0002230  97.3756 262.7630 13.19724641113103
ONEWEB-0650             
1 55813U 23029T   25179.92309448  .00000007  00000+0 -14560-4 0  9998
2 55813  87.9216  15.2125 0002048  90.2889 269.8479 13.19724892112301
ONEWEB-0652             
1 55814U 23029U   25179.90683702 -.00000206  00000+0 -58918-3 0  9991
2 55814  87.9037   0.0089 0001688  88.0089 272.1234 13.14502618112952
ONEWEB-0653             
1 55815U 23029V   25180.49991653  .00000189  00000+0  47484-3 0  9999
2 55815  87.9042 359.8808 0001632  95.1916 264.9400 13.14502674113755
ONEWEB-0654             
1 55816U 23029W   25180.57127628  .00000246  00000+0  62889-3 0  9992
2 55816  87.9039 359.8665 0001440  86.8304 273.2990 13.14502498113782
ONEWEB-0656             
1 55817U 23029X   25180.02593722  .00000065  00000+0  12903-3 0  9996
2 55817  87.9269 344.7619 0001371  87.4078 272.7212 13.20771886115215
ONEWEB-0657             
1 55818U 23029Y   25180.52489624  .00000003  00000+0 -25504-4 0  9992
2 55818  87.9214  15.0975 0001968  65.2762 294.8575 13.19724714113070
ONEWEB-0658             
1 55819U 23029Z   25179.83780075 -.00000543  00000+0 -13895-2 0  9997
2 55819  87.9212  15.1673 0002175  87.8474 272.2907 13.19727970112318
ONEWEB-0660             
1 55820U 23029AA  25180.54907657  .00000066  00000+0  14399-3 0  9995
2 55820  87.9035 359.8416 0001943 102.1569 257.9779 13.14502783113781
ONEWEB-0661             
1 55821U 23029AB  25180.50784613  .00000034  00000+0  58509-4 0  9994
2 55821  87.9039 359.9208 0001864 102.0532 258.0807 13.14503020113742
ONEWEB-0662             
1 55822U 23029AC  25180.00992498  .00000077  00000+0  17267-3 0  9994
2 55822  87.9037   0.0265 0002005 100.9743 259.1612 13.14504522113741
ONEWEB-0663             
1 55823U 23029AD  25179.93064434 -.00000009  00000+0 -53932-4 0  9992
2 55823  87.9267 344.8360 0002162 102.9451 257.1924 13.20839874114512
ONEWEB-0664             
1 55824U 23029AE  25179.93754103  .00000029  00000+0  39115-4 0  9999
2 55824  87.9270 344.8565 0001586 103.7010 256.4300 13.20770387114516
ONEWEB-0665             
1 55825U 23029AF  25179.89573540 -.00000002  00000+0 -40741-4 0  9999
2 55825  87.9039   0.0173 0001975  97.3523 262.7831 13.14502010112993
ONEWEB-0666             
1 55826U 23029AG  25180.53729295  .00000061  00000+0  11807-3 0  9996
2 55826  87.9270 344.7260 0001763  69.8045 290.3278 13.20770673115280
ONEWEB-0667             
1 55827U 23029AH  25180.53096481  .00000023  00000+0  25620-4 0  9998
2 55827  87.9267 344.6587 0001881 100.6695 259.4650 13.20770021115270
ONEWEB-0669             
1 55828U 23029AJ  25180.52623578  .00000021  00000+0  20359-4 0  9993
2 55828  87.9269 344.6955 0001110  91.8434 268.2826 13.20772876115272
ONEWEB-0670             
1 55829U 23029AK  25179.94965571  .00000184  00000+0  46155-3 0  9991
2 55829  87.9040   0.0247 0001727 105.0226 255.1095 13.14502484113021
ONEWEB-0671             
1 55830U 23029AL  25179.90887177 -.00000074  00000+0 -21653-3 0  9990
2 55830  87.9214  15.2128 0001852  96.6619 263.4724 13.19723644112301
ONEWEB-0672             
1 55831U 23029AM  25179.91545725  .00000004  00000+0 -22810-4 0  9991
2 55831  87.9270 344.8027 0001675  84.9404 275.1920 13.20771497114512
ONEWEB-0673             
1 55832U 23029AN  25180.11262979  .00000072  00000+0  14794-3 0  9998
2 55832  87.9213  15.1352 0002088  90.4678 269.6694 13.19728310113040
ONEWEB-0674             
1 55833U 23029AP  25180.07016937 -.00000215  00000+0 -61384-3 0  9993
2 55833  87.9034 359.9866 0001618 107.5927 252.5379 13.14502674113708
ONEWEB-0675             
1 55834U 23029AQ  25180.50750352  .00000033  00000+0  49573-4 0  9991
2 55834  87.9215  15.1054 0001975  79.8013 280.3342 13.19726261113112
ONEWEB-0720             
1 55835U 23029AR  25179.96890942  .00000077  00000+0  16080-3 0  9994
2 55835  87.9216  15.2088 0002175  96.9837 263.1543 13.19725303112947
ONEWEB-0537             
1 56046U 23043A   25180.56870814  .00000039  00000+0  69046-4 0  9998
2 56046  87.9065 299.0406 0001884  93.3865 266.7481 13.16594521113470
ONEWEB-0538             
1 56047U 23043B   25179.80240105 -.00000031  00000+0 -11416-3 0  9999
2 56047  87.9053 299.2119 0002176  95.9036 264.2343 13.16594527112479
ONEWEB-0546             
1 56048U 23043C   25179.86572542  .00000040  00000+0  70456-4 0  9997
2 56048  87.9062 299.1740 0001576  79.3607 280.7702 13.16594009112479
ONEWEB-0547             
1 56049U 23043D   25179.89862169 -.00000015  00000+0 -68949-4 0  9996
2 56049  87.9259 314.4425 0002108  97.6541 262.4832 13.21826851112460
ONEWEB-0548             
1 56050U 23043E   25179.89106137 -.00000089  00000+0 -26587-3 0  9996
2 56050  87.9048 299.2033 0001729 115.2039 244.9272 13.16594135113386
ONEWEB-0549             
1 56051U 23043F   25179.88995741 -.00000034  00000+0 -11289-3 0  9996
2 56051  87.9272 314.4560 0002266  97.3623 262.7768 13.21826349112464
ONEWEB-0550             
1 56052U 23043G   25180.10443501  .00000108  00000+0  23119-3 0  9991
2 56052  87.9269 314.4072 0001745 101.6074 258.5256 13.21826325112491
ONEWEB-0551             
1 56053U 23043H   25179.94500368  .00000126  00000+0  29961-3 0  9998
2 56053  87.9063 329.6592 0002085  97.6459 262.4909 13.15548648109956
ONEWEB-0552             
1 56054U 23043J   25179.87103735  .00000079  00000+0  15903-3 0  9996
2 56054  87.9269 314.4625 0002133 104.8113 255.3257 13.21824816111553
ONEWEB-0553             
1 56055U 23043K   25179.79607057  .00000005  00000+0 -20482-4 0  9993
2 56055  87.9053 299.2111 0001612  93.6884 266.4431 13.16593654112472
ONEWEB-0554             
1 56056U 23043L   25180.23938220  .00000092  00000+0  20655-3 0  9990
2 56056  87.9048 299.1506 0001758 108.1124 252.0199 13.16593066113429
